CYGNUS NG-23            
1 65616U 25208A   25348.21787239  .00012052  00000+0  22198-3 0  9996
2 65616  51.6305 135.1599 0003264 246.9077 113.1568 15.49586484   222
DRAGONFLY               
1 65729U 98067XH  25347.69198777  .00179632  00000+0  13021-2 0  9990
2 65729  51.6241 130.8872 0006817 284.2780  75.7461 15.72310549 13317
1998-067XK              
1 65731U 98067XK  25347.69153018  .00104411  00000+0  99454-3 0  9990
2 65731  51.6277 132.4028 0005022 252.6654 107.3793 15.65971562 13293
RSP-03                  
1 65732U 98067XL  25347.69463906  .00138092  00000+0  11602-2 0  9991
2 65732  51.6251 131.6633 0005764 257.9098 102.1253 15.68925685 13317
GHS-01                  
1 65733U 98067XM  25347.64190642  .00231510  00000+0  14639-2 0  9993
2 65733  51.6271 130.5592 0007396 286.1274  73.8911 15.75321114 13326
YOTSUBA-KULOVER         
1 65941U 98067XN  25348.12236571  .00073626  00000+0  90188-3 0  9996
2 65941  51.6286 133.0282 0001379 267.2851  92.7984 15.59689626 10079
BOTAN                   
1 65942U 98067XP  25347.80521917  .00116317  00000+0  12360-2 0  9992
2 65942  51.6273 133.9097 0002985 245.5023 114.5660 15.63168137 10037
E-KAGAKU-1              
1 65943U 98067XQ  25347.67390934  .00069544  00000+0  85555-3 0  9997
2 65943  51.6291 135.2869 0001883 210.5697 149.5187 15.59600277 10005
HRC MONOBLOCK CAMERA    
1 66052U 98067XR  25348.32294280  .00040056  00000+0  60595-3 0  9993
2 66052  51.6291 133.6119 0003078 191.3375 168.7547 15.54276415  9081
HTV-X1                  
1 66174U 25241A   25348.21787239  .00012052  00000+0  22198-3 0  9993
2 66174  51.6305 135.1599 0003264 246.9077 113.1568 15.49586484   514
SZ-21 MODULE            
1 66515U 25246C   25348.26494785  .00029720  00000+0  32566-3 0  9993
2 66515  41.4775   6.7415 0006252 268.4580  91.5544 15.62581213  4684
SHENZHOU-22             
1 66645U 25272A   25348.31596000  .00025793  00000+0  32168-3 0  9999
2 66645  41.4685   7.1390 0008064  44.1445 316.0035 15.59258965263573
