CCSDS_OMM_VERS = 2.0
CREATION_DATE  = 
ORIGINATOR     = 

OBJECT_NAME    = CYGNUS NG-23
OBJECT_ID      = 2025-208A
CENTER_NAME    = EARTH
REF_FRAME      = TEME
TIME_SYSTEM    = UTC
MEAN_ELEMENT_THEORY = SGP/SGP4

EPOCH          = 2025-12-14T05:13:44.174496
MEAN_MOTION    = 15.49586484
ECCENTRICITY   = .00032642
INCLINATION    = 51.6305
RA_OF_ASC_NODE = 135.1599
ARG_OF_PERICENTER = 246.9077
MEAN_ANOMALY   = 113.1568

EPHEMERIS_TYPE = 0
CLASSIFICATION_TYPE = U
NORAD_CAT_ID   = 65616
ELEMENT_SET_NO = 999
REV_AT_EPOCH   = 22
BSTAR          = .22198491E-3
MEAN_MOTION_DOT = .12052E-3
MEAN_MOTION_DDOT = 0

CCSDS_OMM_VERS = 2.0
CREATION_DATE  = 
ORIGINATOR     = 

OBJECT_NAME    = DRAGONFLY
OBJECT_ID      = 1998-067XH
CENTER_NAME    = EARTH
REF_FRAME      = TEME
TIME_SYSTEM    = UTC
MEAN_ELEMENT_THEORY = SGP/SGP4

EPOCH          = 2025-12-13T16:36:27.743328
MEAN_MOTION    = 15.72310549
ECCENTRICITY   = .00068171
INCLINATION    = 51.6241
RA_OF_ASC_NODE = 130.8872
ARG_OF_PERICENTER = 284.2780
MEAN_ANOMALY   = 75.7461

EPHEMERIS_TYPE = 0
CLASSIFICATION_TYPE = U
NORAD_CAT_ID   = 65729
ELEMENT_SET_NO = 999
REV_AT_EPOCH   = 1331
BSTAR          = .13020604E-2
MEAN_MOTION_DOT = .179632E-2
MEAN_MOTION_DDOT = 0

CCSDS_OMM_VERS = 2.0
CREATION_DATE  = 
ORIGINATOR     = 

OBJECT_NAME    = 1998-067XK
OBJECT_ID      = 1998-067XK
CENTER_NAME    = EARTH
REF_FRAME      = TEME
TIME_SYSTEM    = UTC
MEAN_ELEMENT_THEORY = SGP/SGP4

EPOCH          = 2025-12-13T16:35:48.207552
MEAN_MOTION    = 15.65971562
ECCENTRICITY   = .0005022
INCLINATION    = 51.6277
RA_OF_ASC_NODE = 132.4028
ARG_OF_PERICENTER = 252.6654
MEAN_ANOMALY   = 107.3793

EPHEMERIS_TYPE = 0
CLASSIFICATION_TYPE = U
NORAD_CAT_ID   = 65731
ELEMENT_SET_NO = 999
REV_AT_EPOCH   = 1329
BSTAR          = .9945398E-3
MEAN_MOTION_DOT = .104411E-2
MEAN_MOTION_DDOT = 0

CCSDS_OMM_VERS = 2.0
CREATION_DATE  = 
ORIGINATOR     = 

OBJECT_NAME    = RSP-03
OBJECT_ID      = 1998-067XL
CENTER_NAME    = EARTH
REF_FRAME      = TEME
TIME_SYSTEM    = UTC
MEAN_ELEMENT_THEORY = SGP/SGP4

EPOCH          = 2025-12-13T16:40:16.814784
MEAN_MOTION    = 15.68925685
ECCENTRICITY   = .00057642
INCLINATION    = 51.6251
RA_OF_ASC_NODE = 131.6633
ARG_OF_PERICENTER = 257.9098
MEAN_ANOMALY   = 102.1253

EPHEMERIS_TYPE = 0
CLASSIFICATION_TYPE = U
NORAD_CAT_ID   = 65732
ELEMENT_SET_NO = 999
REV_AT_EPOCH   = 1331
BSTAR          = .11602018E-2
MEAN_MOTION_DOT = .138092E-2
MEAN_MOTION_DDOT = 0

CCSDS_OMM_VERS = 2.0
CREATION_DATE  = 
ORIGINATOR     = 

OBJECT_NAME    = GHS-01
OBJECT_ID      = 1998-067XM
CENTER_NAME    = EARTH
REF_FRAME      = TEME
TIME_SYSTEM    = UTC
MEAN_ELEMENT_THEORY = SGP/SGP4

EPOCH          = 2025-12-13T15:24:20.714688
MEAN_MOTION    = 15.75321114
ECCENTRICITY   = .00073966
INCLINATION    = 51.6271
RA_OF_ASC_NODE = 130.5592
ARG_OF_PERICENTER = 286.1274
MEAN_ANOMALY   = 73.8911

EPHEMERIS_TYPE = 0
CLASSIFICATION_TYPE = U
NORAD_CAT_ID   = 65733
ELEMENT_SET_NO = 999
REV_AT_EPOCH   = 1332
BSTAR          = .14639187E-2
MEAN_MOTION_DOT = .23151E-2
MEAN_MOTION_DDOT = 0

CCSDS_OMM_VERS = 2.0
CREATION_DATE  = 
ORIGINATOR     = 

OBJECT_NAME    = YOTSUBA-KULOVER
OBJECT_ID      = 1998-067XN
CENTER_NAME    = EARTH
REF_FRAME      = TEME
TIME_SYSTEM    = UTC
MEAN_ELEMENT_THEORY = SGP/SGP4

EPOCH          = 2025-12-14T02:56:12.397344
MEAN_MOTION    = 15.59689626
ECCENTRICITY   = .00013798
INCLINATION    = 51.6286
RA_OF_ASC_NODE = 133.0282
ARG_OF_PERICENTER = 267.2851
MEAN_ANOMALY   = 92.7984

EPHEMERIS_TYPE = 0
CLASSIFICATION_TYPE = U
NORAD_CAT_ID   = 65941
ELEMENT_SET_NO = 999
REV_AT_EPOCH   = 1007
BSTAR          = .90188305E-3
MEAN_MOTION_DOT = .73626E-3
MEAN_MOTION_DDOT = 0

CCSDS_OMM_VERS = 2.0
CREATION_DATE  = 
ORIGINATOR     = 

OBJECT_NAME    = BOTAN
OBJECT_ID      = 1998-067XP
CENTER_NAME    = EARTH
REF_FRAME      = TEME
TIME_SYSTEM    = UTC
MEAN_ELEMENT_THEORY = SGP/SGP4

EPOCH          = 2025-12-13T19:19:30.936288
MEAN_MOTION    = 15.63168137
ECCENTRICITY   = .00029855
INCLINATION    = 51.6273
RA_OF_ASC_NODE = 133.9097
ARG_OF_PERICENTER = 245.5023
MEAN_ANOMALY   = 114.5660

EPHEMERIS_TYPE = 0
CLASSIFICATION_TYPE = U
NORAD_CAT_ID   = 65942
ELEMENT_SET_NO = 999
REV_AT_EPOCH   = 1003
BSTAR          = .12359991E-2
MEAN_MOTION_DOT = .116317E-2
MEAN_MOTION_DDOT = 0

CCSDS_OMM_VERS = 2.0
CREATION_DATE  = 
ORIGINATOR     = 

OBJECT_NAME    = E-KAGAKU-1
OBJECT_ID      = 1998-067XQ
CENTER_NAME    = EARTH
REF_FRAME      = TEME
TIME_SYSTEM    = UTC
MEAN_ELEMENT_THEORY = SGP/SGP4

EPOCH          = 2025-12-13T16:10:25.766976
MEAN_MOTION    = 15.59600277
ECCENTRICITY   = .0001883
INCLINATION    = 51.6291
RA_OF_ASC_NODE = 135.2869
ARG_OF_PERICENTER = 210.5697
MEAN_ANOMALY   = 149.5187

EPHEMERIS_TYPE = 0
CLASSIFICATION_TYPE = U
NORAD_CAT_ID   = 65943
ELEMENT_SET_NO = 999
REV_AT_EPOCH   = 1000
BSTAR          = .85555158E-3
MEAN_MOTION_DOT = .69544E-3
MEAN_MOTION_DDOT = 0

CCSDS_OMM_VERS = 2.0
CREATION_DATE  = 
ORIGINATOR     = 

OBJECT_NAME    = HRC MONOBLOCK CAMERA
OBJECT_ID      = 1998-067XR
CENTER_NAME    = EARTH
REF_FRAME      = TEME
TIME_SYSTEM    = UTC
MEAN_ELEMENT_THEORY = SGP/SGP4

EPOCH          = 2025-12-14T07:45:02.257920
MEAN_MOTION    = 15.54276415
ECCENTRICITY   = .00030787
INCLINATION    = 51.6291
RA_OF_ASC_NODE = 133.6119
ARG_OF_PERICENTER = 191.3375
MEAN_ANOMALY   = 168.7547

EPHEMERIS_TYPE = 0
CLASSIFICATION_TYPE = U
NORAD_CAT_ID   = 66052
ELEMENT_SET_NO = 999
REV_AT_EPOCH   = 908
BSTAR          = .60594703E-3
MEAN_MOTION_DOT = .40056E-3
MEAN_MOTION_DDOT = 0

CCSDS_OMM_VERS = 2.0
CREATION_DATE  = 
ORIGINATOR     = 

OBJECT_NAME    = HTV-X1
OBJECT_ID      = 2025-241A
CENTER_NAME    = EARTH
REF_FRAME      = TEME
TIME_SYSTEM    = UTC
MEAN_ELEMENT_THEORY = SGP/SGP4

EPOCH          = 2025-12-14T05:13:44.174496
MEAN_MOTION    = 15.49586484
ECCENTRICITY   = .00032642
INCLINATION    = 51.6305
RA_OF_ASC_NODE = 135.1599
ARG_OF_PERICENTER = 246.9077
MEAN_ANOMALY   = 113.1568

EPHEMERIS_TYPE = 0
CLASSIFICATION_TYPE = U
NORAD_CAT_ID   = 66174
ELEMENT_SET_NO = 999
REV_AT_EPOCH   = 51
BSTAR          = .22198491E-3
MEAN_MOTION_DOT = .12052E-3
MEAN_MOTION_DDOT = 0

CCSDS_OMM_VERS = 2.0
CREATION_DATE  = 
ORIGINATOR     = 

OBJECT_NAME    = SZ-21 MODULE
OBJECT_ID      = 2025-246C
CENTER_NAME    = EARTH
REF_FRAME      = TEME
TIME_SYSTEM    = UTC
MEAN_ELEMENT_THEORY = SGP/SGP4

EPOCH          = 2025-12-14T06:21:31.494240
MEAN_MOTION    = 15.62581213
ECCENTRICITY   = .00062526
INCLINATION    = 41.4775
RA_OF_ASC_NODE = 6.7415
ARG_OF_PERICENTER = 268.4580
MEAN_ANOMALY   = 91.5544

EPHEMERIS_TYPE = 0
CLASSIFICATION_TYPE = U
NORAD_CAT_ID   = 66515
ELEMENT_SET_NO = 999
REV_AT_EPOCH   = 468
BSTAR          = .32565972E-3
MEAN_MOTION_DOT = .2972E-3
MEAN_MOTION_DDOT = 0

CCSDS_OMM_VERS = 2.0
CREATION_DATE  = 
ORIGINATOR     = 

OBJECT_NAME    = SHENZHOU-22
OBJECT_ID      = 2025-272A
CENTER_NAME    = EARTH
REF_FRAME      = TEME
TIME_SYSTEM    = UTC
MEAN_ELEMENT_THEORY = SGP/SGP4

EPOCH          = 2025-12-14T07:34:58.944000
MEAN_MOTION    = 15.59258965
ECCENTRICITY   = .00080649
INCLINATION    = 41.4685
RA_OF_ASC_NODE = 7.1390
ARG_OF_PERICENTER = 44.1445
MEAN_ANOMALY   = 316.0035

EPHEMERIS_TYPE = 0
CLASSIFICATION_TYPE = U
NORAD_CAT_ID   = 66645
ELEMENT_SET_NO = 999
REV_AT_EPOCH   = 26357
BSTAR          = .32167744E-3
MEAN_MOTION_DOT = .25793E-3
MEAN_MOTION_DDOT = 0

